GALAXY 17 (G-17)    [PM]
1 31307C 07016B   22251.98601852 -.00000081  00000-0  00000-0 0  2510
2 31307   0.0074 118.3924 0002856  45.6073  87.9759  1.00271803    19
INTELSAT 11 (IS-11)     
1 32253C 07044B   22248.00000000 -.00000178  00000-0  00000-0 0  2482
2 32253   0.0081 102.9038 0001933  75.1197 123.0792  1.00271016    18
INTELSAT 11 (IS-11)     
1 32253C 07044B   22251.00000000 -.00000178  00000-0  00000-0 0  2510
2 32253   0.0146 112.9442 0001945  56.2179 134.8892  1.00278916    10
INTELSAT 11 (IS-11) [PM]
1 32253C 07044B   22251.35659722 -.00000178  00000-0  00000-0 0  2519
2 32253   0.0631 292.3528 0001971 355.7891 144.6475  1.00271027    16
INTELSAT 11 (IS-11) [PM]
1 32253C 07044B   22252.53208333 -.00000172  00000-0  00000-0 0  2523
2 32253   0.0173 113.6695 0001875  51.6056 331.8489  1.00271251    19
HORIZONS-2          [PM]
1 32388C 07063B   22245.89096065 -.00003513  00000-0  00000-0 0  2455
2 32388   0.0321 326.5414 0003333 140.9129 162.3434  0.99712758    17
HORIZONS-2              
1 32388C 07063B   22248.00000000 -.00000156  00000-0  00000-0 0  2488
2 32388   0.0036 104.9768 0003252   3.7104 198.1897  0.99711805    11
HORIZONS-2              
1 32388C 07063B   22251.00000000 -.00000178  00000-0  00000-0 0  2510
2 32388   0.0101 115.8710 0003063 357.9319 189.9719  0.99710032    16
GALAXY 18 (G-18)        
1 32951C 08024A   22248.00000000  .00000115  00000-0  00000-0 0  2486
2 32951   0.0193 105.6401 0003288  61.2350  54.2090  1.00268855    16
GALAXY 18 (G-18)    [PM]
1 32951C 08024A   22250.51666667  .00000118  00000-0  00000-0 0  2508
2 32951   0.0099 201.5299 0003492 325.6687 242.3715  1.00270285    13
GALAXY 18 (G-18)        
1 32951C 08024A   22251.00000000  .00000115  00000-0  00000-0 0  2514
2 32951   0.0085 197.0798 0003443 331.0813  55.8845  1.00269637    19
GALAXY 18 (G-18)    [PM]
1 32951C 08024A   22252.09375000  .00000133  00000-0  00000-0 0  2520
2 32951   0.0066 191.8873 0003494 339.7968  87.1853  1.00270064    19
INTELSAT 25 (IS-25) [PM]
1 33153C 08034A   22247.31231482 -.00000134  00000-0  00000-0 0  2476
2 33153   0.0481 290.0696 0003282 336.8364 157.4400  1.00272555    19
INTELSAT 25 (IS-25)     
1 33153C 08034A   22248.00000000 -.00000134  00000-0  00000-0 0  2484
2 33153   0.0123 136.9321 0003175  18.1162 157.5370  1.00273241    12
INTELSAT 25 (IS-25)     
1 33153C 08034A   22251.00000000 -.00000128  00000-0  00000-0 0  2515
2 33153   0.0114 172.4959 0003326 352.3778 150.6736  1.00270419    12
INTELSAT 25 (IS-25) [PM]
1 33153C 08034A   22254.81770833 -.00000144  00000-0  00000-0 0  2546
2 33153   0.0370  65.1960 0003238  44.9725 143.5047  1.00273237    11
GALAXY 19 (G-19)        
1 33376C 08045A   22248.00000000 -.00000049  00000-0  00000-0 0  2488
2 33376   0.0453 290.2821 0003205 230.9390  85.8662  1.00270720    11
GALAXY 19 (G-19)    [PM]
1 33376C 08045A   22250.99975694 -.00000060  00000-0  00000-0 0  2505
2 33376   0.0470 285.2981 0003253 241.3141  83.3366  1.00270842    13
GALAXY 19 (G-19)        
1 33376C 08045A   22251.00000000 -.00000060  00000-0  00000-0 0  2519
2 33376   0.0471 285.4178 0003252 241.1295  83.4893  1.00270842    17
INTELSAT 14 (IS-14)     
1 36097C 09064A   22248.00000000 -.00000180  00000-0  00000-0 0  2489
2 36097   0.0040 117.1606 0002438  46.4374 135.4905  1.00271781    13
INTELSAT 14 (IS-14)     
1 36097C 09064A   22251.00000000 -.00000183  00000-0  00000-0 0  2510
2 36097   0.0113 122.7677 0002582  44.1735 135.0995  1.00272660    12
INTELSAT 14 (IS-14) [PM]
1 36097C 09064A   22255.91659722 -.00000183  00000-0  00000-0 0  2559
2 36097   0.0271 259.7833 0002451 294.1167  82.9758  1.00268502    10
INTELSAT 15 (IS-15)     
1 36106C 09067A   22248.00000000 -.00000095  00000-0  00000-0 0  2488
2 36106   0.0195  79.1370 0002455  79.2111 270.8956  1.00271689    19
INTELSAT 15 (IS-15)     
1 36106C 09067A   22251.00000000 -.00003608  00000-0  00000-0 0  2519
2 36106   0.0000 201.5616 0002537 323.4497 267.1735  1.00269481    11
INTELSAT 15 (IS-15) [PM]
1 36106C 09067A   22251.51156250 -.00003619  00000-0  00000-0 0  2516
2 36106   0.0000 198.7859 0002511 323.1145  94.9478  1.00271697    18
INTELSAT 15 (IS-15) [PM]
1 36106C 09067A   22252.52202546 -.00003655  00000-0  00000-0 0  2529
2 36106   0.0012 205.5583 0002478 320.7858  95.2691  1.00271601    14
INTELSAT 16 (IS-16)     
1 36397C 10006A   22248.00000000 -.00000155  00000-0  00000-0 0  2482
2 36397   0.0173  86.6950 0002238  71.4772 109.7253  1.00271733    10
INTELSAT 16 (IS-16)     
1 36397C 10006A   22251.00000000 -.00003787  00000-0  00000-0 0  2514
2 36397   0.0086 217.3124 0002358 303.4022 110.1273  1.00271666    11
INTELSAT 16 (IS-16) [PM]
1 36397C 10006A   22251.69363426 -.00000186  00000-0  00000-0 0  2513
2 36397   0.0051 209.5500 0002320 315.1489 356.5373  1.00271220    13
INTELSAT 17 (IS-17)     
1 37238C 10065B   22248.00000000  .00000088  00000-0  00000-0 0  2486
2 37238   0.0297 217.9045 0002774 312.8464 239.3359  1.00271033    11
INTELSAT 17 (IS-17) [PM]
1 37238C 10065B   22250.55862269  .00000086  00000-0  00000-0 0  2503
2 37238   0.0642 346.6492 0002856  21.8600 245.2087  1.00270150    14
INTELSAT 17 (IS-17)     
1 37238C 10065B   22251.00000000  .00000088  00000-0  00000-0 0  2514
2 37238   0.0260 193.2956 0002899 340.3058 239.4446  1.00275137    18
INTELSAT 17 (IS-17) [PM]
1 37238C 10065B   22252.60644676  .00000089  00000-0  00000-0 0  2526
2 37238   0.0242 188.9298 0002805 344.1559  99.8613  1.00270441    10
INTELSAT NEW DAWN   [PM]
1 37392C 11016A   22246.14115741  .00000246  00000-0  00000-0 0  2460
2 37392   0.0114 189.0439 0001244 288.8544 307.9654  1.00269576    17
INTELSAT NEW DAWN       
1 37392C 11016A   22248.00000000  .00000246  00000-0  00000-0 0  2480
2 37392   0.0106 163.7804 0001202 316.6344 256.4508  1.00270359    12
INTELSAT NEW DAWN       
1 37392C 11016A   22251.00000000  .00000246  00000-0  00000-0 0  2518
2 37392   0.0157 153.3345 0001079 346.6240 239.8552  1.00271194    15
INTELSAT 18 (IS-18)     
1 37834C 11056A   22248.00000000 -.00003676  00000-0  00000-0 0  2486
2 37834   0.0390 330.3061 0002299 175.0410  18.7512  1.00269480    10
INTELSAT 18 (IS-18) [PM]
1 37834C 11056A   22250.25081018 -.00003602  00000-0  00000-0 0  2506
2 37834   0.0316   7.0806 0002384 138.8690 110.6413  1.00270726    12
INTELSAT 18 (IS-18)     
1 37834C 11056A   22251.00000000 -.00003684  00000-0  00000-0 0  2513
2 37834   0.0294  19.0523 0002337 130.3504  17.6353  1.00270726    14
INTELSAT 18 (IS-18) [PM]
1 37834C 11056A   22252.60223380 -.00002747  00000-0  00000-0 0  2528
2 37834   0.0297  29.9721 0002320 127.8482 227.6015  1.00271990    17
INTELSAT 22 (IS-22)     
1 38098C 12011A   22248.00000000  .00000031  00000-0  00000-0 0  2482
2 38098   0.0114 111.9297 0003024  55.0481 249.2144  1.00271580    19
INTELSAT 22 (IS-22) [PM]
1 38098C 12011A   22250.48052083  .00000051  00000-0  00000-0 0  2500
2 38098   0.0522 322.1332 0002939  15.2859 254.2088  1.00270317    19
INTELSAT 22 (IS-22)     
1 38098C 12011A   22251.00000000  .00000032  00000-0  00000-0 0  2511
2 38098   0.0063 187.9632 0002933 336.7225 254.4647  1.00270578    13
INTELSAT 19 (IS-19)     
1 38356C 12030A   22248.00000000  .00000035  00000-0  00000-0 0  2484
2 38356   0.0019 121.4608 0003125  40.0408 348.5830  1.00271423    18
INTELSAT 19 (IS-19)     
1 38356C 12030A   22251.00000000  .00000034  00000-0  00000-0 0  2511
2 38356   0.0095 125.7990 0003184  42.0353 345.2091  1.00270916    18
INTELSAT 19 (IS-19) [PM]
1 38356C 12030A   22252.78540509  .00000034  00000-0  00000-0 0  2521
2 38356   0.0514  15.0305 0003203  81.3023 341.2257  1.00270195    16
INTELSAT 20 (IS-20)     
1 38740C 12043A   22248.00000000  .00000066  00000-0  00000-0 0  2489
2 38740   0.0109 146.0643 0001629  19.0594 247.4596  1.00270919    11
INTELSAT 20 (IS-20) [PM]
1 38740C 12043A   22250.08766204  .00000066  00000-0  00000-0 0  2508
2 38740   0.0312 208.0407 0001993 354.3309 243.8171  1.00272017    17
INTELSAT 20 (IS-20)     
1 38740C 12043A   22251.00000000  .00000066  00000-0  00000-0 0  2517
2 38740   0.0155 147.6372 0001847  26.3240 241.5672  1.00269948    19
INTELSAT 21 (IS-21)     
1 38749C 12045A   22248.00000000 -.00000210  00000-0  00000-0 0  2482
2 38749   0.0000 122.8682 0002532  41.6847 121.5388  1.00271001    15
INTELSAT 21 (IS-21)     
1 38749C 12045A   22251.00000000 -.00000195  00000-0  00000-0 0  2512
2 38749   0.0054 127.0706 0002566  34.0137 127.9529  1.00275726    18
INTELSAT 21 (IS-21) [PM]
1 38749C 12045A   22251.31142361 -.00000196  00000-0  00000-0 0  2514
2 38749   0.0573 295.4091 0002435 336.0543 130.0006  1.00271299    18
INTELSAT 23 (IS-23)     
1 38867C 12057A   22248.00000000 -.00003810  00000-0  00000-0 0  2485
2 38867   0.0385 283.7907 0000386 145.1477 222.1740  1.00267860    11
INTELSAT 23 (IS-23)     
1 38867C 12057A   22251.00000000 -.00000193  00000-0  00000-0 0  2514
2 38867   0.0419 262.1384 0000648 108.3790 283.5048  1.00285406    17
INTELSAT 23 (IS-23) [PM]
1 38867C 12057A   22252.48745370 -.00000198  00000-0  00000-0 0  2529
2 38867   0.0462 263.4336 0000864 121.2669  86.2985  1.00271690    13
INTELSAT 30 (IS-30)     
1 40271C 14062A   22248.00000000 -.00003721  00000-0  00000-0 0  2486
2 40271   0.0000 180.5236 0002514 263.8050 164.7090  1.00269945    11
INTELSAT 30 (IS-30) [PM]
1 40271C 14062A   22250.41388889 -.00001924  00000-0  00000-0 0  2504
2 40271   0.0033 320.2959 0002409 273.9241 166.1890  1.00271761    12
INTELSAT 30 (IS-30)     
1 40271C 14062A   22251.00000000 -.00003825  00000-0  00000-0 0  2519
2 40271   0.0029 180.2503 0002292 268.6140 163.1213  1.00269905    18
INTELSAT 34 (IS-34)     
1 40874C 15039A   22248.00000000 -.00003811  00000-0  00000-0 0  2480
2 40874   0.0434 308.5088 0000885 130.5559 209.5413  1.00270319    15
